1 08820U 76039A   03087.15502391 -.00000003  00000-0  10000-3 0  9052
2 08820 109.8179 153.8652 0044295 318.7302  41.0057  6.38664448371886
